{
  "norad_id": 58786,
  "name": "STARLINK-31024",
  "history": [
    {
      "epoch": "2026-03-28T20:41:21.088032",
      "apogee_km": 476.04795604011724,
      "perigee_km": 474.43330027092543,
      "latitude_deg": 30.272508597570432,
      "longitude_deg": 141.35676448000595,
      "semi_major_axis_km": 6853.377628155521,
      "eccentricity": 0.0001178,
      "inclination_deg": 53.1602,
      "raan_deg": 282.6476,
      "arg_perigee_deg": 95.1026,
      "mean_anomaly_deg": 265.011,
      "mean_motion_rev_day": 15.3019144
    }
  ]
}